{"type": "FeatureCollection", "features": [{"type": "Feature", "geometry": {"type": "Point", "coordinates": [4.4166, 43.7545]}, "properties": {"icao24": "3b7b3e", "callsign": "MILAN77", "country": "France", "alt_m": null, "on_ground": true, "speed_kmh": 78, "heading": 177, "pos_time": 1785258771, "type": "Dash-8 Q400MR", "role": "water bomber"}}, {"type": "Feature", "geometry": {"type": "Point", "coordinates": [-0.792, 44.871]}, "properties": {"icao24": "3b7b3f", "callsign": "MILAN76", "country": "France", "alt_m": 602, "on_ground": false, "speed_kmh": 354, "heading": 312, "pos_time": 1785258904, "type": "Dash-8 Q400MR", "role": "water bomber"}}, {"type": "Feature", "geometry": {"type": "Point", "coordinates": [2.145, 43.1749]}, "properties": {"icao24": "3b7b3d", "callsign": "MILAN78", "country": "France", "alt_m": 846, "on_ground": false, "speed_kmh": 470, "heading": 56, "pos_time": 1785258778, "type": "Dash-8 Q400MR", "role": "water bomber"}}, {"type": "Feature", "geometry": {"type": "Point", "coordinates": [1.1135, 44.4558]}, "properties": {"icao24": "3b7b3a", "callsign": "MILAN79", "country": "France", "alt_m": 5334, "on_ground": false, "speed_kmh": 566, "heading": 287, "pos_time": 1785258905, "type": "Dash-8 Q400MR", "role": "water bomber"}}, {"type": "Feature", "geometry": {"type": "Point", "coordinates": [3.9875, 43.618]}, "properties": {"icao24": "3b7b7b", "callsign": "DRAGO34", "country": "France", "alt_m": 244, "on_ground": false, "speed_kmh": 224, "heading": 229, "pos_time": 1785258905, "type": "EC145 / H145", "role": "rescue helicopter"}}, {"type": "Feature", "geometry": {"type": "Point", "coordinates": [7.577, 48.5077]}, "properties": {"icao24": "3b7b94", "callsign": "DRAGO67", "country": "France", "alt_m": 373, "on_ground": false, "speed_kmh": 220, "heading": 32, "pos_time": 1785258905, "type": "EC145 / H145", "role": "rescue helicopter"}}, {"type": "Feature", "geometry": {"type": "Point", "coordinates": [8.2245, 45.8711]}, "properties": {"icao24": "30043d", "callsign": "CAN31", "country": "Italy", "alt_m": 1257, "on_ground": false, "speed_kmh": 241, "heading": 83, "pos_time": 1785258905, "type": "Canadair CL-415", "role": "water bomber"}}, {"type": "Feature", "geometry": {"type": "Point", "coordinates": [9.8165, 42.6897]}, "properties": {"icao24": "300241", "callsign": "CAN12", "country": "Italy", "alt_m": 1806, "on_ground": false, "speed_kmh": 343, "heading": 358, "pos_time": 1785258904, "type": "Canadair CL-415", "role": "water bomber"}}, {"type": "Feature", "geometry": {"type": "Point", "coordinates": [13.4806, 41.663]}, "properties": {"icao24": "300242", "callsign": "CAN18", "country": "Italy", "alt_m": 853, "on_ground": false, "speed_kmh": 353, "heading": 16, "pos_time": 1785258901, "type": "Canadair CL-415", "role": "water bomber"}}, {"type": "Feature", "geometry": {"type": "Point", "coordinates": [8.3326, 45.8076]}, "properties": {"icao24": "300248", "callsign": "CAN21", "country": "Italy", "alt_m": 1059, "on_ground": false, "speed_kmh": 281, "heading": 278, "pos_time": 1785258905, "type": "Canadair CL-415", "role": "water bomber"}}]}